[
    {
        "name": "Thompson Nelson",
        "id": 570619233,
        "address": "21 Randall Mill Drive ",
        "city": "Sheffield",
        "state": "DC",
        "zip_code": 44494
    },
    {
        "name": "Thomas Thomas",
        "id": 568725756,
        "address": "21 Randall Mill Drive ",
        "city": "Bradford",
        "state": "ND",
        "zip_code": 37896
    },
    {
        "name": "Miller Scott",
        "id": 529229119,
        "address": "241 Washington St. ",
        "city": "Birmingham",
        "state": "GU",
        "zip_code": 95528
    },
    {
        "name": "Thompson Taylor",
        "id": 207695080,
        "address": "678 Glenridge St. ",
        "city": "Chelsea",
        "state": "NC",
        "zip_code": 39530
    },
    {
        "name": "Garcia Garcia",
        "id": 551525346,
        "address": "358 North Poplar Lane ",
        "city": "New London",
        "state": "GU",
        "zip_code": 12080
    },
    {
        "name": "Scott Harris",
        "id": 399612617,
        "address": "21 Randall Mill Drive ",
        "city": "Birmingham",
        "state": "AZ",
        "zip_code": 81632
    },
    {
        "name": "Nelson Carter",
        "id": 861218061,
        "address": "7365 Tarkiln Hill Lane ",
        "city": "New London",
        "state": "NH",
        "zip_code": 94764
    },
    {
        "name": "Thomas Martin",
        "id": 845387066,
        "address": "63 Meadow Court ",
        "city": "Everton",
        "state": "ID",
        "zip_code": 41979
    },
    {
        "name": "Harris Miller",
        "id": 676206557,
        "address": "819 Schoolhouse Lane ",
        "city": "York",
        "state": "MP",
        "zip_code": 25775
    },
    {
        "name": "Thomas Scott",
        "id": 404008286,
        "address": "63 Meadow Court ",
        "city": "Brighton",
        "state": "IN",
        "zip_code": 53757
    },
    {
        "name": "Smith Smith",
        "id": 681497588,
        "address": "8575 Del Monte Drive ",
        "city": "Winslow",
        "state": "IN",
        "zip_code": 45391
    },
    {
        "name": "Taylor Taylor",
        "id": 824141658,
        "address": "241 Washington St. ",
        "city": "Sheffield",
        "state": "AR",
        "zip_code": 66748
    },
    {
        "name": "Jones Nelson",
        "id": 862064483,
        "address": "78 Shirley Drive ",
        "city": "Dover",
        "state": "ID",
        "zip_code": 96065
    },
    {
        "name": "Miller Scott",
        "id": 168084250,
        "address": "63 Meadow Court ",
        "city": "Chester",
        "state": "ID",
        "zip_code": 99862
    },
    {
        "name": "Miller Nelson",
        "id": 186972363,
        "address": "7304 St Louis St. ",
        "city": "Anchorage",
        "state": "NC",
        "zip_code": 60337
    }
]
