[
    {
        "name": "Garcia Miller",
        "id": 390261978,
        "address": "46 West Alton Avenue ",
        "city": "Ashford",
        "state": "Florida",
        "zip_code": 26273,
        "suspended": false
    },
    {
        "name": "Anderson Garcia",
        "id": 843313330,
        "address": "63 Winding Way Street ",
        "city": "Oxford",
        "state": "Utah",
        "zip_code": 92272,
        "suspended": false
    },
    {
        "name": "Thompson Max",
        "id": 562812262,
        "address": "8499 Catherine St. ",
        "city": "Carlisle",
        "state": "Oklahoma",
        "zip_code": 74221,
        "suspended": false
    },
    {
        "name": "Jones Garcia",
        "id": 650630199,
        "address": "8499 Catherine St. ",
        "city": "Camden",
        "state": "Virginia",
        "zip_code": 18507,
        "suspended": false
    },
    {
        "name": "Martin Nelson",
        "id": 443818193,
        "address": "8575 Del Monte Drive ",
        "city": "Winslow",
        "state": "Tennessee",
        "zip_code": 29483,
        "suspended": false
    },
    {
        "name": "Anderson Scott",
        "id": 861956431,
        "address": "8 N. Lake View St. ",
        "city": "Chelsea",
        "state": "Alaska",
        "zip_code": 62136,
        "suspended": false
    },
    {
        "name": "Nelson Garcia",
        "id": 999299742,
        "address": "8575 Del Monte Drive ",
        "city": "Brent",
        "state": "South Carolina",
        "zip_code": 24897,
        "suspended": false
    },
    {
        "name": "Taylor Wilson",
        "id": 475512950,
        "address": "8575 Del Monte Drive ",
        "city": "Brent",
        "state": "Arkansas",
        "zip_code": 52906,
        "suspended": false
    },
    {
        "name": "Smith Nelson",
        "id": 568533986,
        "address": "121 Manhattan St. ",
        "city": "York",
        "state": "Kansas",
        "zip_code": 49526,
        "suspended": false
    },
    {
        "name": "Harris Wilson",
        "id": 642428733,
        "address": "8499 Catherine St. ",
        "city": "New London",
        "state": "Indiana",
        "zip_code": 99977,
        "suspended": false
    },
    {
        "name": "Thomas Anderson",
        "id": 467115764,
        "address": "916 Vale Lane ",
        "city": "Chester",
        "state": "Montana",
        "zip_code": 11596,
        "suspended": false
    },
    {
        "name": "Thomas Max",
        "id": 870692687,
        "address": "66 Myers St. ",
        "city": "Anchorage",
        "state": "Kentucky",
        "zip_code": 24387,
        "suspended": false
    },
    {
        "name": "Martin Johnson",
        "id": 739839959,
        "address": "678 Glenridge St. ",
        "city": "Oxford",
        "state": "Missouri",
        "zip_code": 88796,
        "suspended": false
    },
    {
        "name": "Garcia Davis",
        "id": 845254605,
        "address": "8499 Catherine St. ",
        "city": "England",
        "state": "New York",
        "zip_code": 18709,
        "suspended": false
    },
    {
        "name": "Carter Johnson",
        "id": 434408783,
        "address": "8139 Glendale Road ",
        "city": "Chester",
        "state": "Nebraska",
        "zip_code": 62411,
        "suspended": false
    }
]
